IRIDIUM 136             
1 42962U 17061H   23279.74998308  .00000257  00000+0  84646-4 0  9994
2 42962  86.3926  76.6567 0002300  86.6282 273.5177 14.34219859313738
